{
  "type": "FeatureCollection",
  "features": [
    {
      "type": "Feature",
      "properties": {
        "norad_id": 29486,
        "name": "GPS BIIRM-2 (PRN 31)",
        "group": "gps-ops",
        "lat": -26.338549766684014,
        "lon": -0.7046616731149772,
        "alt_km": 20455.636739176312,
        "timestamp": "2025-12-12T07:43:20.772137+00:00",
        "meta_object_name": "GPS BIIRM-2 (PRN 31)",
        "meta_object_id": "2006-042A",
        "meta_epoch": "2025-12-11T18:34:08.503392",
        "meta_mean_motion": 2.00554182,
        "meta_eccentricity": 0.01073561,
        "meta_inclination": 54.6941,
        "meta_ra_of_asc_node": 158.779,
        "meta_arg_of_pericenter": 51.9381,
        "meta_mean_anomaly": 124.8587,
        "meta_ephemeris_type": 0,
        "meta_classification_type": "U",
        "meta_norad_cat_id": 29486,
        "meta_element_set_no": 999,
        "meta_rev_at_epoch": 14063,
        "meta_bstar": 0,
        "meta_mean_motion_dot": 9.1e-07,
        "meta_mean_motion_ddot": 0,
        "tle_line1": "1 29486U 06042A   25345.77370953  .00000091  00000+0  00000+0 0  9999",
        "tle_line2": "2 29486  54.6941 158.7790 0107356  51.9381 124.8587  2.00554182140632"
      },
      "geometry": {
        "type": "Point",
        "coordinates": [
          -0.7046616731149772,
          -26.338549766684014
        ]
      }
    },
    {
      "type": "Feature",
      "properties": {
        "norad_id": 29601,
        "name": "GPS BIIRM-3 (PRN 12)",
        "group": "gps-ops",
        "lat": -54.97299353926394,
        "lon": 131.49428781044048,
        "alt_km": 20419.917797433234,
        "timestamp": "2025-12-12T07:43:20.772149+00:00",
        "meta_object_name": "GPS BIIRM-3 (PRN 12)",
        "meta_object_id": "2006-052A",
        "meta_epoch": "2025-12-10T22:50:57.183936",
        "meta_mean_motion": 2.00573418,
        "meta_eccentricity": 0.00877701,
        "meta_inclination": 54.9709,
        "meta_ra_of_asc_node": 221.4692,
        "meta_arg_of_pericenter": 87.4134,
        "meta_mean_anomaly": 273.6662,
        "meta_ephemeris_type": 0,
        "meta_classification_type": "U",
        "meta_norad_cat_id": 29601,
        "meta_element_set_no": 999,
        "meta_rev_at_epoch": 13963,
        "meta_bstar": 0,
        "meta_mean_motion_dot": 3e-08,
        "meta_mean_motion_ddot": 0,
        "tle_line1": "1 29601U 06052A   25344.95205074  .00000003  00000+0  00000+0 0  9992",
        "tle_line2": "2 29601  54.9709 221.4692 0087770  87.4134 273.6662  2.00573418139630"
      },
      "geometry": {
        "type": "Point",
        "coordinates": [
          131.49428781044048,
          -54.97299353926394
        ]
      }
    },
    {
      "type": "Feature",
      "properties": {
        "norad_id": 32260,
        "name": "GPS BIIRM-4 (PRN 15)",
        "group": "gps-ops",
        "lat": 37.63862459060325,
        "lon": 121.89308686561759,
        "alt_km": 19823.42370308673,
        "timestamp": "2025-12-12T07:43:20.772161+00:00",
        "meta_object_name": "GPS BIIRM-4 (PRN 15)",
        "meta_object_id": "2007-047A",
        "meta_epoch": "2025-12-11T06:11:12.991200",
        "meta_mean_motion": 2.00564547,
        "meta_eccentricity": 0.01642039,
        "meta_inclination": 53.9543,
        "meta_ra_of_asc_node": 87.8198,
        "meta_arg_of_pericenter": 85.2289,
        "meta_mean_anomaly": 276.6392,
        "meta_ephemeris_type": 0,
        "meta_classification_type": "U",
        "meta_norad_cat_id": 32260,
        "meta_element_set_no": 999,
        "meta_rev_at_epoch": 13304,
        "meta_bstar": 0,
        "meta_mean_motion_dot": -2.3e-07,
        "meta_mean_motion_ddot": 0,
        "tle_line1": "1 32260U 07047A   25345.25778925 -.00000023  00000+0  00000+0 0  9999",
        "tle_line2": "2 32260  53.9543  87.8198 0164203  85.2289 276.6392  2.00564547133044"
      },
      "geometry": {
        "type": "Point",
        "coordinates": [
          121.89308686561759,
          37.63862459060325
        ]
      }
    },
    {
      "type": "Feature",
      "properties": {
        "norad_id": 32384,
        "name": "GPS BIIRM-5 (PRN 29)",
        "group": "gps-ops",
        "lat": 0.4310372477140013,
        "lon": 101.34857108878437,
        "alt_km": 20099.2686248276,
        "timestamp": "2025-12-12T07:43:20.772173+00:00",
        "meta_object_name": "GPS BIIRM-5 (PRN 29)",
        "meta_object_id": "2007-062A",
        "meta_epoch": "2025-12-11T19:20:30.701760",
        "meta_mean_motion": 2.00577226,
        "meta_eccentricity": 0.00322349,
        "meta_inclination": 55.183,
        "meta_ra_of_asc_node": 281.6834,
        "meta_arg_of_pericenter": 162.4856,
        "meta_mean_anomaly": 4.3365,
        "meta_ephemeris_type": 0,
        "meta_classification_type": "U",
        "meta_norad_cat_id": 32384,
        "meta_element_set_no": 999,
        "meta_rev_at_epoch": 13175,
        "meta_bstar": 0,
        "meta_mean_motion_dot": -7.4e-07,
        "meta_mean_motion_ddot": 0,
        "tle_line1": "1 32384U 07062A   25345.80591090 -.00000074  00000+0  00000+0 0  9996",
        "tle_line2": "2 32384  55.1830 281.6834 0032234 162.4856   4.3365  2.00577226131751"
      },
      "geometry": {
        "type": "Point",
        "coordinates": [
          101.34857108878437,
          0.4310372477140013
        ]
      }
    },
    {
      "type": "Feature",
      "properties": {
        "norad_id": 32711,
        "name": "GPS BIIRM-6 (PRN 07)",
        "group": "gps-ops",
        "lat": 52.651672229763676,
        "lon": -92.05969099899471,
        "alt_km": 20599.33051189066,
        "timestamp": "2025-12-12T07:43:20.772185+00:00",
        "meta_object_name": "GPS BIIRM-6 (PRN 07)",
        "meta_object_id": "2008-012A",
        "meta_epoch": "2025-12-11T16:14:23.546688",
        "meta_mean_motion": 2.00565584,
        "meta_eccentricity": 0.02024008,
        "meta_inclination": 54.477,
        "meta_ra_of_asc_node": 157.4153,
        "meta_arg_of_pericenter": 244.9354,
        "meta_mean_anomaly": 112.9612,
        "meta_ephemeris_type": 0,
        "meta_classification_type": "U",
        "meta_norad_cat_id": 32711,
        "meta_element_set_no": 999,
        "meta_rev_at_epoch": 12999,
        "meta_bstar": 0,
        "meta_mean_motion_dot": 8.9e-07,
        "meta_mean_motion_ddot": 0,
        "tle_line1": "1 32711U 08012A   25345.67666142  .00000089  00000+0  00000+0 0  9997",
        "tle_line2": "2 32711  54.4770 157.4153 0202400 244.9354 112.9612  2.00565584129995"
      },
      "geometry": {
        "type": "Point",
        "coordinates": [
          -92.05969099899471,
          52.651672229763676
        ]
      }
    },
    {
      "type": "Feature",
      "properties": {
        "norad_id": 35752,
        "name": "GPS BIIRM-8 (PRN 05)",
        "group": "gps-ops",
        "lat": 43.4224931458231,
        "lon": 175.3128040711548,
        "alt_km": 20074.44240140231,
        "timestamp": "2025-12-12T07:43:20.772214+00:00",
        "meta_object_name": "GPS BIIRM-8 (PRN 05)",
        "meta_object_id": "2009-043A",
        "meta_epoch": "2025-12-11T15:37:32.913696",
        "meta_mean_motion": 2.00565741,
        "meta_eccentricity": 0.00518358,
        "meta_inclination": 56.0903,
        "meta_ra_of_asc_node": 34.8259,
        "meta_arg_of_pericenter": 81.9315,
        "meta_mean_anomaly": 277.4877,
        "meta_ephemeris_type": 0,
        "meta_classification_type": "U",
        "meta_norad_cat_id": 35752,
        "meta_element_set_no": 999,
        "meta_rev_at_epoch": 11959,
        "meta_bstar": 0,
        "meta_mean_motion_dot": -9.6e-07,
        "meta_mean_motion_ddot": 0,
        "tle_line1": "1 35752U 09043A   25345.65107539 -.00000096  00000+0  00000+0 0  9997",
        "tle_line2": "2 35752  56.0903  34.8259 0051835  81.9315 277.4877  2.00565741119594"
      },
      "geometry": {
        "type": "Point",
        "coordinates": [
          175.3128040711548,
          43.4224931458231
        ]
      }
    },
    {
      "type": "Feature",
      "properties": {
        "norad_id": 36585,
        "name": "GPS BIIF-1  (PRN 25)",
        "group": "gps-ops",
        "lat": -45.88362659294032,
        "lon": 83.92648027130326,
        "alt_km": 20522.875638353606,
        "timestamp": "2025-12-12T07:43:20.772226+00:00",
        "meta_object_name": "GPS BIIF-1  (PRN 25)",
        "meta_object_id": "2010-022A",
        "meta_epoch": "2025-12-11T07:42:38.318976",
        "meta_mean_motion": 2.00553138,
        "meta_eccentricity": 0.01260446,
        "meta_inclination": 54.3003,
        "meta_ra_of_asc_node": 216.1311,
        "meta_arg_of_pericenter": 65.0548,
        "meta_mean_anomaly": 174.6737,
        "meta_ephemeris_type": 0,
        "meta_classification_type": "U",
        "meta_norad_cat_id": 36585,
        "meta_element_set_no": 999,
        "meta_rev_at_epoch": 11382,
        "meta_bstar": 0,
        "meta_mean_motion_dot": 1.4e-07,
        "meta_mean_motion_ddot": 0,
        "tle_line1": "1 36585U 10022A   25345.32127684  .00000014  00000+0  00000+0 0  9997",
        "tle_line2": "2 36585  54.3003 216.1311 0126044  65.0548 174.6737  2.00553138113821"
      },
      "geometry": {
        "type": "Point",
        "coordinates": [
          83.92648027130326,
          -45.88362659294032
        ]
      }
    }
  ]
}